NORAD_CAT_ID,OBJECT_NAME,OBJECT_TYPE,EPOCH,MEAN_MOTION,ECCENTRICITY,INCLINATION,RA_OF_ASC_NODE,ARG_OF_PERICENTER,MEAN_ANOMALY,BSTAR,MEAN_MOTION_DOT,MEAN_MOTION_DDOT,TLE_LINE0,TLE_LINE1,TLE_LINE2,SEMIMAJOR_AXIS,PERIOD,APOGEE,PERIGEE,DECAYED
56461.0,STARLINK-6037,PAYLOAD,2024-01-08 08:11:54,14.98331271,0.0002712,70.0007,339.5711,262.9627,97.1223,4.0491e-05,3.9e-06,0.0,0 STARLINK-6037,1 56461U 23064P   24008.34160839  .00000390  00000-0  40491-4 0  9999,2 56461  70.0007 339.5711 0002712 262.9627  97.1223 14.98331271 37073,6950.189,96.107,573.939,570.169,0.0
56461.0,STARLINK-6037,PAYLOAD,2024-01-08 22:37:05,14.98355032,0.0002979,70.0009,338.0562,264.0489,96.0331,0.00024631,2.849e-05,0.0,0 STARLINK-6037,1 56461U 23064P   24008.94241958  .00002849  00000-0  24631-3 0  9995,2 56461  70.0009 338.0562 0002979 264.0489  96.0331 14.98355032 36806,6950.115,96.105,574.051,569.91,0.0
56461.0,STARLINK-6037,PAYLOAD,2024-01-09 05:01:38,14.9833492,0.0002642,70.0009,337.3829,271.2471,88.8385,1.398e-05,7.4e-07,0.0,0 STARLINK-6037,1 56461U 23064P   24009.20947635  .00000074  00000-0  13980-4 0  9994,2 56461  70.0009 337.3829 0002642 271.2471  88.8385 14.98334920 37208,6950.178,96.107,573.879,570.206,0.0
56461.0,STARLINK-6037,PAYLOAD,2024-01-09 08:13:55,14.9833226,0.0002615,70.0008,337.0454,269.4415,90.6444,-1.4816e-05,-2.7e-06,0.0,0 STARLINK-6037,1 56461U 23064P   24009.34299822 -.00000270  00000-0 -14816-4 0  9996,2 56461  70.0008 337.0454 0002615 269.4415  90.6444 14.98332260 36868,6950.186,96.107,573.868,570.233,0.0
56461.0,STARLINK-6037,PAYLOAD,2024-01-09 22:39:08,14.98321758,0.00019,70.0025,335.5307,252.549,107.5461,-0.00010529,-1.349e-05,0.0,0 STARLINK-6037,1 56461U 23064P   24009.94384731 -.00001349  00000-0 -10529-3 0  9990,2 56461  70.0025 335.5307 0001900 252.5490 107.5461 14.98321758 36956,6950.218,96.108,573.404,570.763,0.0
56461.0,STARLINK-6037,PAYLOAD,2024-01-10 05:03:41,14.98317677,0.0002486,70.0016,334.858,238.7898,121.3017,-0.00018715,-2.324e-05,0.0,0 STARLINK-6037,1 56461U 23064P   24010.21089227 -.00002324  00000-0 -18715-3 0  9993,2 56461  70.0016 334.8580 0002486 238.7898 121.3017 14.98317677 37350,6950.231,96.108,573.824,570.368,0.0
56461.0,STARLINK-6037,PAYLOAD,2024-01-10 06:39:49,14.98317685,0.0002597,70.0014,334.6901,245.7736,114.3152,-0.00017792,-2.214e-05,0.0,0 STARLINK-6037,1 56461U 23064P   24010.27765232 -.00002214  00000-0 -17792-3 0  9998,2 56461  70.0014 334.6901 0002597 245.7736 114.3152 14.98317685 37008,6950.231,96.108,573.901,570.291,0.0
56461.0,STARLINK-6037,PAYLOAD,2024-01-11 03:29:33,14.98341927,0.0002763,70.0,332.5004,260.509,99.5757,-0.00039607,-4.817e-05,0.0,0 STARLINK-6037,1 56461U 23064P   24011.14552407 -.00004817  00000-0 -39607-3 0  9993,2 56461  70.0000 332.5004 0002763 260.5090  99.5757 14.98341927 37491,6950.156,96.106,573.941,570.101,0.0
56461.0,STARLINK-6037,PAYLOAD,2024-01-11 06:41:48,14.98346119,0.0002601,70.0002,332.1641,256.3901,103.6968,-0.00032851,-4.012e-05,0.0,0 STARLINK-6037,1 56461U 23064P   24011.27903868 -.00004012  00000-0 -32851-3 0  9999,2 56461  70.0002 332.1641 0002601 256.3901 103.6968 14.98346119 37513,6950.143,96.106,573.816,570.2,0.0
56461.0,STARLINK-6037,PAYLOAD,2024-01-11 21:07:02,14.98310717,0.0002912,70.0,330.6484,270.2665,89.8161,0.00021614,2.486e-05,0.0,0 STARLINK-6037,1 56461U 23064P   24011.87988963  .00002486  00000-0  21614-3 0  9990,2 56461  70.0000 330.6484 0002912 270.2665  89.8161 14.98310717 37241,6950.253,96.108,574.141,570.094,0.0
56461.0,STARLINK-6037,PAYLOAD,2024-01-12 03:31:34,14.983167,0.0002824,69.9999,329.9745,266.803,93.2806,0.00014712,1.662e-05,0.0,0 STARLINK-6037,1 56461U 23064P   24012.14693057  .00001662  00000-0  14712-3 0  9994,2 56461  69.9999 329.9745 0002824 266.8030  93.2806 14.98316700 37642,6950.234,96.108,574.062,570.136,0.0
56461.0,STARLINK-6037,PAYLOAD,2024-01-12 06:43:50,14.9832332,0.0002734,70.0003,329.6391,263.554,96.5308,0.00017752,2.025e-05,0.0,0 STARLINK-6037,1 56461U 23064P   24012.28044640  .00002025  00000-0  17752-3 0  9998,2 56461  70.0003 329.6391 0002734 263.5540  96.5308 14.98323320 37666,6950.214,96.107,573.979,570.178,0.0
56461.0,STARLINK-6037,PAYLOAD,2024-01-12 22:45:11,14.98331362,0.0002546,70.0004,327.9556,264.2198,95.8671,-5.6399e-05,-7.66e-06,0.0,0 STARLINK-6037,1 56461U 23064P   24012.94805075 -.00000766  00000-0 -56399-4 0  9991,2 56461  70.0004 327.9556 0002546 264.2198  95.8671 14.98331362 37401,6950.189,96.107,573.823,570.284,0.0
56461.0,STARLINK-6037,PAYLOAD,2024-01-13 06:45:51,14.98327872,0.0002495,70.0009,327.114,269.4479,90.6394,4.9756e-05,5.01e-06,0.0,0 STARLINK-6037,1 56461U 23064P   24013.28185044  .00000501  00000-0  49756-4 0  9990,2 56461  70.0009 327.1140 0002495 269.4479  90.6394 14.98327872 37810,6950.199,96.107,573.799,570.33,0.0
56461.0,STARLINK-6037,PAYLOAD,2024-01-14 06:47:52,14.9833073,0.0002611,70.0013,324.5903,260.225,99.8614,5.1217e-05,5.18e-06,0.0,0 STARLINK-6037,1 56461U 23064P   24014.28324864  .00000518  00000-0  51217-4 0  9999,2 56461  70.0013 324.5903 0002611 260.2250  99.8614 14.98330730 37968,6950.191,96.107,573.87,570.241,0.0
56461.0,STARLINK-6037,PAYLOAD,2024-01-14 22:49:13,14.983345,0.0002683,70.0006,322.9065,261.5459,98.5396,3.595e-05,3.36e-06,0.0,0 STARLINK-6037,1 56461U 23064P   24014.95084541  .00000336  00000-0  35950-4 0  9992,2 56461  70.0006 322.9065 0002683 261.5459  98.5396 14.98334500 37709,6950.179,96.107,573.909,570.179,0.0
56461.0,STARLINK-6037,PAYLOAD,2024-01-15 05:13:44,14.98337739,0.0002554,70.0008,322.2331,262.0692,98.0177,7.3889e-05,7.89e-06,0.0,0 STARLINK-6037,1 56461U 23064P   24015.21788138  .00000789  00000-0  73889-4 0  9990,2 56461  70.0008 322.2331 0002554 262.0692  98.0177 14.98337739 38106,6950.169,96.107,573.809,570.259,0.0
56461.0,STARLINK-6037,PAYLOAD,2024-01-15 21:15:06,14.98323974,0.000241,70.0013,320.5505,245.3644,114.7264,-5.1064e-05,-7.02e-06,0.0,0 STARLINK-6037,1 56461U 23064P   24015.88549320 -.00000702  00000-0 -51064-4 0  9999,2 56461  70.0013 320.5505 0002410 245.3644 114.7264 14.98323974 37847,6950.212,96.107,573.752,570.402,0.0
56461.0,STARLINK-6037,PAYLOAD,2024-01-16 00:27:22,14.98323571,0.0002443,70.0012,320.2141,244.0284,116.0623,-5.6526e-05,-7.67e-06,0.0,0 STARLINK-6037,1 56461U 23064P   24016.01901389 -.00000767  00000-0 -56526-4 0  9991,2 56461  70.0012 320.2141 0002443 244.0284 116.0623 14.98323571 38221,6950.213,96.107,573.776,570.38,0.0
56461.0,STARLINK-6037,PAYLOAD,2024-01-16 06:51:55,14.98321899,0.0002441,70.0011,319.5406,246.9705,113.1197,-7.5004e-05,-9.87e-06,0.0,0 STARLINK-6037,1 56461U 23064P   24016.28605664 -.00000987  00000-0 -75004-4 0  9993,2 56461  70.0011 319.5406 0002441 246.9705 113.1197 14.98321899 37901,6950.218,96.108,573.779,570.386,0.0
56461.0,STARLINK-6037,PAYLOAD,2024-01-16 21:17:06,14.98336076,0.0002745,70.0,318.0239,266.3158,93.7687,-3.7109e-06,-1.37e-06,0.0,0 STARLINK-6037,1 56461U 23064P   24016.88688558 -.00000137  00000-0 -37109-5 0  9994,2 56461  70.0000 318.0239 0002745 266.3158  93.7687 14.98336076 37991,6950.174,96.107,573.947,570.131,0.0
56461.0,STARLINK-6037,PAYLOAD,2024-01-17 03:41:38,14.98340392,0.000245,70.0009,317.3523,255.2435,104.8452,4.0937e-05,3.96e-06,0.0,0 STARLINK-6037,1 56461U 23064P   24017.15392016  .00000396  00000-0  40937-4 0  9993,2 56461  70.0009 317.3523 0002450 255.2435 104.8452 14.98340392 38391,6950.161,96.106,573.729,570.323,0.0
56461.0,STARLINK-6037,PAYLOAD,2024-01-17 05:17:46,14.98341603,0.0002433,70.0011,317.1845,253.1702,106.919,5.4147e-05,5.53e-06,0.0,0 STARLINK-6037,1 56461U 23064P   24017.22067860  .00000553  00000-0  54147-4 0  9990,2 56461  70.0011 317.1845 0002433 253.1702 106.9190 14.98341603 38044,6950.157,96.106,573.713,570.331,0.0
56461.0,STARLINK-6037,PAYLOAD,2024-01-17 21:19:08,14.98323342,0.0002365,70.0026,315.5019,223.2442,136.8532,9.8653e-05,1.084e-05,0.0,0 STARLINK-6037,1 56461U 23064P   24017.88828807  .00001084  00000-0  98653-4 0  9998,2 56461  70.0026 315.5019 0002365 223.2442 136.8532 14.98323342 38141,6950.213,96.107,573.722,570.435,0.0
56461.0,STARLINK-6037,PAYLOAD,2024-01-18 03:43:41,14.98317636,0.000246,70.0017,314.8291,254.8021,105.2866,1.1397e-05,4.3e-07,0.0,0 STARLINK-6037,1 56461U 23064P   24018.15533566  .00000043  00000-0  11397-4 0  9998,2 56461  70.0017 314.8291 0002460 254.8021 105.2866 14.98317636 38547,6950.231,96.108,573.806,570.386,0.0
56461.0,STARLINK-6037,PAYLOAD,2024-01-18 05:19:49,14.98317955,0.0002269,70.0022,314.6616,240.504,119.5893,9.1312e-06,1.6e-07,0.0,0 STARLINK-6037,1 56461U 23064P   24018.22209581  .00000016  00000-0  91312-5 0  9999,2 56461  70.0022 314.6616 0002269 240.5040 119.5893 14.98317955 38195,6950.23,96.108,573.672,570.518,0.0
56461.0,STARLINK-6037,PAYLOAD,2024-01-18 21:21:08,14.98334004,0.0002685,70.001,312.9763,257.8378,102.2481,-3.5336e-05,-5.15e-06,0.0,0 STARLINK-6037,1 56461U 23064P   24018.88968669 -.00000515  00000-0 -35336-4 0  9999,2 56461  70.0010 312.9763 0002685 257.8378 102.2481 14.98334004 38290,6950.181,96.107,573.912,570.179,0.0
56461.0,STARLINK-6037,PAYLOAD,2024-01-19 03:45:40,14.98337552,0.0002615,70.0009,312.3025,254.3128,105.7743,-5.0744e-06,-1.53e-06,0.0,0 STARLINK-6037,1 56461U 23064P   24019.15672266 -.00000153  00000-0 -50744-5 0  9994,2 56461  70.0009 312.3025 0002615 254.3128 105.7743 14.98337552 38695,6950.17,96.107,573.852,570.217,0.0
56461.0,STARLINK-6037,PAYLOAD,2024-01-19 05:21:48,14.98340077,0.0002774,70.0005,312.1341,261.7597,98.3247,-2.4527e-05,-3.86e-06,0.0,0 STARLINK-6037,1 56461U 23064P   24019.22348153 -.00000386  00000-0 -24527-4 0  9994,2 56461  70.0005 312.1341 0002774 261.7597  98.3247 14.98340077 38342,6950.162,96.106,573.955,570.099,0.0
56461.0,STARLINK-6037,PAYLOAD,2024-01-19 19:47:01,14.98312081,0.0002563,70.0011,310.6184,265.5166,94.57,0.00033677,3.926e-05,0.0,0 STARLINK-6037,1 56461U 23064P   24019.82432569  .00003926  00000-0  33677-3 0  9991,2 56461  70.0011 310.6184 0002563 265.5166  94.5700 14.98312081 38792,6950.248,96.108,573.895,570.332,0.0
